{"type": "FeatureCollection", "features": [ {"type": "Feature", "properties": {"norad_id": 44543, "name": "BEIDOU-3 M23 (C45)", "group": "beidou", "lat": -41.18765985612491, "lon": 48.151448708640416, "alt_km": 21547.14425868899, "timestamp": "2025-12-02T15:49:07.454716+00:00", "meta": {"OBJECT_NAME": "BEIDOU-3 M23 (C45)", "OBJECT_ID": "2019-061B", "EPOCH": "2025-12-02T01:08:19.108032", "MEAN_MOTION": 1.86229309, "ECCENTRICITY": 0.00060105, "INCLINATION": 54.3988, "RA_OF_ASC_NODE": 189.3457, "ARG_OF_PERICENTER": 20.9817, "MEAN_ANOMALY": 163.1206, "EPHEMERIS_TYPE": 0, "CLASSIFICATION_TYPE": "U", "NORAD_CAT_ID": 44543, "ELEMENT_SET_NO": 999, "REV_AT_EPOCH": 4212, "BSTAR": 0, "MEAN_MOTION_DOT": 1.21e-06, "MEAN_MOTION_DDOT": 0}, "tle": {"line1": "1 44543U 19061B   25336.04744338  .00000121  00000+0  00000+0 0  9991", "line2": "2 44543  54.3988 189.3457 0006010  20.9817 163.1206  1.86229309 42128"}}, "geometry": {"type": "Point", "coordinates": [48.151448708640416, -41.18765985612491]}}, {"type": "Feature", "properties": {"norad_id": 44709, "name": "BEIDOU-3 IGSO-3 (C40)", "group": "beidou", "lat": 31.800156698970955, "lon": 77.4195307961335, "alt_km": 35672.28707855867, "timestamp": "2025-12-02T15:49:07.454727+00:00", "meta": {"OBJECT_NAME": "BEIDOU-3 IGSO-3 (C40)", "OBJECT_ID": "2019-073A", "EPOCH": "2025-11-20T07:11:22.740000", "MEAN_MOTION": 1.00250097, "ECCENTRICITY": 0.0044538, "INCLINATION": 55.163, "RA_OF_ASC_NODE": 283.159, "ARG_OF_PERICENTER": 191.5856, "MEAN_ANOMALY": 168.2409, "EPHEMERIS_TYPE": 0, "CLASSIFICATION_TYPE": "U", "NORAD_CAT_ID": 44709, "ELEMENT_SET_NO": 999, "REV_AT_EPOCH": 2236, "BSTAR": 0, "MEAN_MOTION_DOT": -2.06e-06, "MEAN_MOTION_DDOT": 0}, "tle": {"line1": "1 44709U 19073A   25324.29956875 -.00000206  00000+0  00000+0 0  9998", "line2": "2 44709  55.1630 283.1590 0044538 191.5856 168.2409  1.00250097 22360"}}, "geometry": {"type": "Point", "coordinates": [77.4195307961335, 31.800156698970955]}}, {"type": "Feature", "properties": {"norad_id": 44793, "name": "BEIDOU-3 M22 (C44)", "group": "beidou", "lat": 48.9202894096013, "lon": 2.827064727311142, "alt_km": 21511.214229181624, "timestamp": "2025-12-02T15:49:07.454742+00:00", "meta": {"OBJECT_NAME": "BEIDOU-3 M22 (C44)", "OBJECT_ID": "2019-078A", "EPOCH": "2025-12-02T00:28:58.554624", "MEAN_MOTION": 1.86231817, "ECCENTRICITY": 0.00056333, "INCLINATION": 54.1183, "RA_OF_ASC_NODE": 306.7625, "ARG_OF_PERICENTER": 22.616, "MEAN_ANOMALY": 337.398, "EPHEMERIS_TYPE": 0, "CLASSIFICATION_TYPE": "U", "NORAD_CAT_ID": 44793, "ELEMENT_SET_NO": 999, "REV_AT_EPOCH": 4097, "BSTAR": 0, "MEAN_MOTION_DOT": -6.1e-07, "MEAN_MOTION_DDOT": 0}, "tle": {"line1": "1 44793U 19078A   25336.02012216 -.00000061  00000+0  00000+0 0  9991", "line2": "2 44793  54.1183 306.7625 0005633  22.6160 337.3980  1.86231817 40974"}}, "geometry": {"type": "Point", "coordinates": [2.827064727311142, 48.9202894096013]}}, {"type": "Feature", "properties": {"norad_id": 44794, "name": "BEIDOU-3 M21 (C43)", "group": "beidou", "lat": -19.033504211362487, "lon": -67.78483070465309, "alt_km": 21522.049369602995, "timestamp": "2025-12-02T15:49:07.454754+00:00", "meta": {"OBJECT_NAME": "BEIDOU-3 M21 (C43)", "OBJECT_ID": "2019-078B", "EPOCH": "2025-12-01T02:00:26.030304", "MEAN_MOTION": 1.86227539, "ECCENTRICITY": 0.00038706, "INCLINATION": 54.0922, "RA_OF_ASC_NODE": 306.7607, "ARG_OF_PERICENTER": 10.0971, "MEAN_ANOMALY": 349.9036, "EPHEMERIS_TYPE": 0, "CLASSIFICATION_TYPE": "U", "NORAD_CAT_ID": 44794, "ELEMENT_SET_NO": 999, "REV_AT_EPOCH": 4096, "BSTAR": 0, "MEAN_MOTION_DOT": -5.7e-07, "MEAN_MOTION_DDOT": 0}, "tle": {"line1": "1 44794U 19078B   25335.08363461 -.00000057  00000+0  00000+0 0  9993", "line2": "2 44794  54.0922 306.7607 0003870  10.0971 349.9036  1.86227539 40963"}}, "geometry": {"type": "Point", "coordinates": [-67.78483070465309, -19.033504211362487]}}, {"type": "Feature", "properties": {"norad_id": 44864, "name": "BEIDOU-3 M19 (C41)", "group": "beidou", "lat": 6.826379002986461, "lon": -115.26512185205198, "alt_km": 21546.486449077423, "timestamp": "2025-12-02T15:49:07.454766+00:00", "meta": {"OBJECT_NAME": "BEIDOU-3 M19 (C41)", "OBJECT_ID": "2019-090A", "EPOCH": "2025-12-01T20:54:26.017344", "MEAN_MOTION": 1.86231094, "ECCENTRICITY": 0.00175122, "INCLINATION": 56.3837, "RA_OF_ASC_NODE": 69.3227, "ARG_OF_PERICENTER": 284.7988, "MEAN_ANOMALY": 78.8343, "EPHEMERIS_TYPE": 0, "CLASSIFICATION_TYPE": "U", "NORAD_CAT_ID": 44864, "ELEMENT_SET_NO": 999, "REV_AT_EPOCH": 4056, "BSTAR": 0, "MEAN_MOTION_DOT": -4.4e-07, "MEAN_MOTION_DDOT": 0}, "tle": {"line1": "1 44864U 19090A   25335.87113446 -.00000044  00000+0  00000+0 0  9994", "line2": "2 44864  56.3837  69.3227 0017512 284.7988  78.8343  1.86231094 40563"}}, "geometry": {"type": "Point", "coordinates": [-115.26512185205198, 6.826379002986461]}}, {"type": "Feature", "properties": {"norad_id": 44865, "name": "BEIDOU-3 M20 (C42)", "group": "beidou", "lat": -55.465947451344626, "lon": -35.829146413014556, "alt_km": 21501.028961055137, "timestamp": "2025-12-02T15:49:07.454778+00:00", "meta": {"OBJECT_NAME": "BEIDOU-3 M20 (C42)", "OBJECT_ID": "2019-090B", "EPOCH": "2025-12-02T06:29:14.465184", "MEAN_MOTION": 1.86231065, "ECCENTRICITY": 0.00146515, "INCLINATION": 56.3856, "RA_OF_ASC_NODE": 69.3436, "ARG_OF_PERICENTER": 297.6266, "MEAN_ANOMALY": 63.245, "EPHEMERIS_TYPE": 0, "CLASSIFICATION_TYPE": "U", "NORAD_CAT_ID": 44865, "ELEMENT_SET_NO": 999, "REV_AT_EPOCH": 4055, "BSTAR": 0, "MEAN_MOTION_DOT": -4.6e-07, "MEAN_MOTION_DDOT": 0}, "tle": {"line1": "1 44865U 19090B   25336.27030631 -.00000046  00000+0  00000+0 0  9996", "line2": "2 44865  56.3856  69.3436 0014651 297.6266  63.2450  1.86231065 40554"}}, "geometry": {"type": "Point", "coordinates": [-35.829146413014556, -55.465947451344626]}}, {"type": "Feature", "properties": {"norad_id": 45344, "name": "BEIDOU-3 G2 (C60)", "group": "beidou", "lat": -0.7195629900484489, "lon": 29.142775700033553, "alt_km": 35783.88130874496, "timestamp": "2025-12-02T15:49:07.454790+00:00", "meta": {"OBJECT_NAME": "BEIDOU-3 G2 (C60)", "OBJECT_ID": "2020-017A", "EPOCH": "2025-12-02T07:19:02.196192", "MEAN_MOTION": 1.00270455, "ECCENTRICITY": 0.00045319, "INCLINATION": 2.9802, "RA_OF_ASC_NODE": 43.5427, "ARG_OF_PERICENTER": 263.878, "MEAN_ANOMALY": 313.808, "EPHEMERIS_TYPE": 0, "CLASSIFICATION_TYPE": "U", "NORAD_CAT_ID": 45344, "ELEMENT_SET_NO": 999, "REV_AT_EPOCH": 2128, "BSTAR": 0, "MEAN_MOTION_DOT": -1.22e-06, "MEAN_MOTION_DDOT": 0}, "tle": {"line1": "1 45344U 20017A   25336.30488653 -.00000122  00000+0  00000+0 0  9990", "line2": "2 45344   2.9802  43.5427 0004531 263.8780 313.8080  1.00270455 21285"}}, "geometry": {"type": "Point", "coordinates": [29.142775700033553, -0.7195629900484489]}}, {"type": "Feature", "properties": {"norad_id": 45807, "name": "BEIDOU-3 G3 (C61)", "group": "beidou", "lat": -0.21287991187052702, "lon": 59.58204572956301, "alt_km": 35773.08333309832, "timestamp": "2025-12-02T15:49:07.454802+00:00", "meta": {"OBJECT_NAME": "BEIDOU-3 G3 (C61)", "OBJECT_ID": "2020-040A", "EPOCH": "2025-12-02T03:49:07.508352", "MEAN_MOTION": 1.00267316, "ECCENTRICITY": 0.00049793, "INCLINATION": 1.9634, "RA_OF_ASC_NODE": 66.509, "ARG_OF_PERICENTER": 305.9594, "MEAN_ANOMALY": 226.6097, "EPHEMERIS_TYPE": 0, "CLASSIFICATION_TYPE": "U", "NORAD_CAT_ID": 45807, "ELEMENT_SET_NO": 999, "REV_AT_EPOCH": 2009, "BSTAR": 0, "MEAN_MOTION_DOT": -3.33e-06, "MEAN_MOTION_DDOT": 0}, "tle": {"line1": "1 45807U 20040A   25336.15911468 -.00000333  00000+0  00000+0 0  9992", "line2": "2 45807   1.9634  66.5090 0004979 305.9594 226.6097  1.00267316 20098"}}, "geometry": {"type": "Point", "coordinates": [59.58204572956301, -0.21287991187052702]}}, {"type": "Feature", "properties": {"norad_id": 56564, "name": "BEIDOU-3 G4 (C62)", "group": "beidou", "lat": 0.18408307974381552, "lon": 109.0472428521347, "alt_km": 35780.544612751655, "timestamp": "2025-12-02T15:49:07.454814+00:00", "meta": {"OBJECT_NAME": "BEIDOU-3 G4 (C62)", "OBJECT_ID": "2023-066A", "EPOCH": "2025-12-02T06:41:38.600736", "MEAN_MOTION": 1.00271063, "ECCENTRICITY": 0.00033958, "INCLINATION": 0.8397, "RA_OF_ASC_NODE": 301.1381, "ARG_OF_PERICENTER": 234.0405, "MEAN_ANOMALY": 156.6885, "EPHEMERIS_TYPE": 0, "CLASSIFICATION_TYPE": "U", "NORAD_CAT_ID": 56564, "ELEMENT_SET_NO": 999, "REV_AT_EPOCH": 942, "BSTAR": 0, "MEAN_MOTION_DOT": -9e-07, "MEAN_MOTION_DDOT": 0}, "tle": {"line1": "1 56564U 23066A   25336.27891899 -.00000090  00000+0  00000+0 0  9993", "line2": "2 56564   0.8397 301.1381 0003395 234.0405 156.6885  1.00271063  9424"}}, "geometry": {"type": "Point", "coordinates": [109.0472428521347, 0.18408307974381552]}}, {"type": "Feature", "properties": {"norad_id": 58654, "name": "BEIDOU-3 M28 (C50)", "group": "beidou", "lat": -53.255106885195275, "lon": 2.4194864700797094, "alt_km": 21528.741102938257, "timestamp": "2025-12-02T15:49:07.454826+00:00", "meta": {"OBJECT_NAME": "BEIDOU-3 M28 (C50)", "OBJECT_ID": "2023-207A", "EPOCH": "2025-12-02T05:39:36.194976", "MEAN_MOTION": 1.8622956, "ECCENTRICITY": 0.00019879, "INCLINATION": 55.5754, "RA_OF_ASC_NODE": 68.9573, "ARG_OF_PERICENTER": 264.8944, "MEAN_ANOMALY": 95.0856, "EPHEMERIS_TYPE": 0, "CLASSIFICATION_TYPE": "U", "NORAD_CAT_ID": 58654, "ELEMENT_SET_NO": 999, "REV_AT_EPOCH": 1317, "BSTAR": 0, "MEAN_MOTION_DOT": -4.7e-07, "MEAN_MOTION_DDOT": 0}, "tle": {"line1": "1 58654U 23207A   25336.23583559 -.00000047  00000+0  00000+0 0  9991", "line2": "2 58654  55.5754  68.9573 0001987 264.8944  95.0856  1.86229560 13175"}}, "geometry": {"type": "Point", "coordinates": [2.4194864700797094, -53.255106885195275]}}]}